[{"OBJECT_NAME":"YAOGAN-35 01A","OBJECT_ID":"2021-101A","EPOCH":"2026-03-09T18:43:20.235648","MEAN_MOTION":15.24952145,"ECCENTRICITY":0.00056881,"INCLINATION":34.9903,"RA_OF_ASC_NODE":183.8731,"ARG_OF_PERICENTER":189.0601,"MEAN_ANOMALY":171.0012,"EPHEMERIS_TYPE":0,"CLASSIFICATION_TYPE":"U","NORAD_CAT_ID":49390,"ELEMENT_SET_NO":999,"REV_AT_EPOCH":24168,"BSTAR":0.00047335489,"MEAN_MOTION_DOT":0.00012075,"MEAN_MOTION_DDOT":0},{"OBJECT_NAME":"STARLINK-30444","OBJECT_ID":"2023-144H","EPOCH":"2026-03-09T22:21:59.992704","MEAN_MOTION":15.26756947,"ECCENTRICITY":0.00014404,"INCLINATION":43.001,"RA_OF_ASC_NODE":283.9041,"ARG_OF_PERICENTER":293.3317,"MEAN_ANOMALY":66.7382,"EPHEMERIS_TYPE":0,"CLASSIFICATION_TYPE":"U","NORAD_CAT_ID":57871,"ELEMENT_SET_NO":999,"REV_AT_EPOCH":13739,"BSTAR":0.00088529743,"MEAN_MOTION_DOT":0.00023575,"MEAN_MOTION_DDOT":0}]
