YAOGAN-35 01A           
1 49390U 21101A   26068.78009532  .00012075  00000+0  47335-3 0  9995
2 49390  34.9903 183.8731 0005688 189.0601 171.0012 15.24952145241689
STARLINK-30444          
1 57871U 23144H   26068.93194435  .00023575  00000+0  88530-3 0  9990
2 57871  43.0010 283.9041 0001440 293.3317  66.7382 15.26756947137399
